ONEWEB-0410             
1 51622U 22012A   26155.08031326  .00000004  00000+0 -23418-4 0  9991
2 51622  87.9153   8.4636 0003188  85.9991 274.1505 13.17647396211970
ONEWEB-0411             
1 51623U 22012B   26155.10857296  .00000105  00000+0  26378-3 0  9995
2 51623  87.8855  38.8706 0001381  95.1939 264.9346 13.10378029207570
ONEWEB-0415             
1 51624U 22012C   26155.10525566 -.00000097  00000+0 -31404-3 0  9996
2 51624  87.8854  38.8703 0001669  93.7204 266.4114 13.10377644207577
ONEWEB-0416             
1 51625U 22012D   26155.11691400  .00000502  00000+0  14005-2 0  9995
2 51625  87.8846  38.8864 0001908  94.9152 265.2193 13.10387317207615
ONEWEB-0422             
1 51626U 22012E   26155.09044761  .00000048  00000+0  91147-4 0  9994
2 51626  87.9147   8.4625 0001403  66.7619 293.3660 13.17650008212089
ONEWEB-0423             
1 51627U 22012F   26155.08370797  .00000034  00000+0  53143-4 0  9994
2 51627  87.9144   8.4705 0001943  80.5755 279.5596 13.17649252211970
ONEWEB-0425             
1 51628U 22012G   26154.21057453  .00000638  00000+0  17917-2 0  9997
2 51628  87.8842  39.0498 0002172  80.3479 279.7893 13.10373275207496
ONEWEB-0428             
1 51629U 22012H   26154.64877189  .00000081  00000+0  19495-3 0  9997
2 51629  87.8850  38.9707 0001792  80.2358 279.8971 13.10377738207518
ONEWEB-0431             
1 51630U 22012J   26155.07689356 -.00000223  00000+0 -67448-3 0  9995
2 51630  87.8841  38.8774 0001265  90.2809 269.8463 13.10370677207622
ONEWEB-0434             
1 51631U 22012K   26154.59580728  .00000614  00000+0  17225-2 0  9994
2 51631  87.8843  38.9978 0002485  83.2774 276.8636 13.10373123207540
ONEWEB-0435             
1 51632U 22012L   26155.06209854  .00001721  00000+0  48916-2 0  9997
2 51632  87.8838  38.8921 0002300  63.4385 296.6978 13.10380938207592
ONEWEB-0436             
1 51633U 22012M   26155.07525375  .00000003  00000+0 -25568-4 0  9991
2 51633  87.9151   8.4533 0001639  82.7903 277.3415 13.17650139211955
ONEWEB-0438             
1 51634U 22012N   26154.20558316  .00000753  00000+0  21196-2 0  9999
2 51634  87.8836  39.0669 0002025  79.1330 281.0026 13.10374572207513
ONEWEB-0439             
1 51635U 22012P   26154.20890175  .00000695  00000+0  19553-2 0  9991
2 51635  87.8840  39.0522 0001867  79.4540 280.6797 13.10373878207491
ONEWEB-0442             
1 51636U 22012Q   26155.06766532 -.00000010  00000+0 -60038-4 0  9995
2 51636  87.9146   8.4882 0002387  90.0535 270.0870 13.17648631211941
ONEWEB-0443             
1 51637U 22012R   26155.08706601  .00000030  00000+0  43124-4 0  9996
2 51637  87.9141   8.4857 0001981  75.4222 284.7129 13.17648494211999
ONEWEB-0444             
1 51638U 22012S   26154.65708460  .00000471  00000+0  13137-2 0  9992
2 51638  87.8849  38.9608 0001873  76.3661 283.7675 13.10376271207560
ONEWEB-0445             
1 51639U 22012T   26155.06045089  .00000477  00000+0  13306-2 0  9994
2 51639  87.8848  38.8687 0001738  91.4440 268.6887 13.10371243207627
ONEWEB-0446             
1 51640U 22012U   26155.11356062  .00000353  00000+0  97431-3 0  9993
2 51640  87.8851  38.8871 0001785  86.3850 273.7482 13.10377748207611
ONEWEB-0448             
1 51641U 22012V   26155.11855448  .00000586  00000+0  16431-2 0  9994
2 51641  87.8844  38.8837 0001845  80.3648 279.7688 13.10375231207587
ONEWEB-0449             
1 51642U 22012W   26154.20724440  .00000624  00000+0  17515-2 0  9998
2 51642  87.8838  39.0496 0002314  83.4271 276.7120 13.10374366207477
ONEWEB-0451             
1 51643U 22012X   26155.07189170  .00000025  00000+0  30053-4 0  9999
2 51643  87.9152   8.4509 0002091  82.9256 277.2113 13.17649685211932
ONEWEB-0452             
1 51644U 22012Y   26155.07019364  .00000011  00000+0 -42358-5 0  9995
2 51644  87.9144   8.4890 0002023  77.6381 282.4977 13.17650711211941
ONEWEB-0456             
1 51646U 22012AA  26155.05711406  .00000591  00000+0  16567-2 0  9993
2 51646  87.8853  38.8667 0001650  80.2422 279.8892 13.10377623207626
ONEWEB-0457             
1 51647U 22012AB  26155.11009246  .00000006  00000+0 -18060-4 0  9997
2 51647  87.8844  38.8758 0001971  88.8912 271.2441 13.10374757207634
ONEWEB-0458             
1 51648U 22012AC  26155.05551862  .00009407  00000+0  26898-1 0  9995
2 51648  87.8836  38.8726 0002206  82.1464 277.9914 13.10334815207585
ONEWEB-0461             
1 51649U 22012AD  26155.16805786 -.00000211  00000+0 -57757-3 0  9991
2 51649  87.9150   8.4465 0001895  91.4949 268.6399 13.17648826212175
ONEWEB-0463             
1 51650U 22012AE  26155.07357435 -.00000016  00000+0 -74490-4 0  9993
2 51650  87.9143   8.4883 0001855  94.9627 265.1717 13.17650766211946
ONEWEB-0464             
1 51651U 22012AF  26154.21222205  .00000686  00000+0  19300-2 0  9993
2 51651  87.8840  39.0639 0001753  74.2865 285.8455 13.10372921207491
ONEWEB-0468             
1 51652U 22012AG  26155.05879206  .00000560  00000+0  15665-2 0  9997
2 51652  87.8839  38.8894 0001695  72.6952 287.4361 13.10371197207582
